[{"OBJECT_NAME":"LEMUR-2-LEIA-PHILIP","OBJECT_ID":"2025-052AN","EPOCH":"2026-03-09T22:47:11.533920","MEAN_MOTION":14.96639353,"ECCENTRICITY":0.00032822,"INCLINATION":97.6941,"RA_OF_ASC_NODE":322.5414,"ARG_OF_PERICENTER":181.695,"MEAN_ANOMALY":178.4261,"EPHEMERIS_TYPE":0,"CLASSIFICATION_TYPE":"U","NORAD_CAT_ID":63246,"ELEMENT_SET_NO":999,"REV_AT_EPOCH":5382,"BSTAR":0.00057534341,"MEAN_MOTION_DOT":6.505e-5,"MEAN_MOTION_DDOT":0},{"OBJECT_NAME":"STARLINK-35688","OBJECT_ID":"2025-293S","EPOCH":"2026-03-09T11:52:35.116896","MEAN_MOTION":14.98331404,"ECCENTRICITY":0.00035264,"INCLINATION":70.0001,"RA_OF_ASC_NODE":95.148,"ARG_OF_PERICENTER":267.3625,"MEAN_ANOMALY":92.7131,"EPHEMERIS_TYPE":0,"CLASSIFICATION_TYPE":"U","NORAD_CAT_ID":67019,"ELEMENT_SET_NO":999,"REV_AT_EPOCH":1485,"BSTAR":0.00037488017,"MEAN_MOTION_DOT":4.383e-5,"MEAN_MOTION_DDOT":0}]
